STATION,DATE,SOURCE,LATITUDE,LONGITUDE,ELEVATION,NAME,REPORT_TYPE,CALL_SIGN,QUALITY_CONTROL,WND,CIG,VIS,TMP,DEW,SLP,AA1,AA2,AA3,AB1,AD1,AE1,AH1,AH2,AH3,AH4,AH5,AH6,AI1,AI2,AI3,AI4,AI5,AI6,AJ1,AK1,AL1,AM1,AN1,AT1,AT2,AT3,AT4,AT5,AT6,AT7,AU1,AU2,AU3,AW1,AW2,AW3,AW4,AX1,AX2,AX3,ED1,GA1,GA2,GA3,GD1,GD2,GD3,GD4,GE1,GF1,KA1,KA2,KB1,KB2,KB3,KC1,KC2,KD1,KD2,KE1,KG1,KG2,MA1,MD1,MF1,MG1,MH1,MK1,MW1,MW2,OC1,OD1,OE1,OE2,OE3,RH1,RH2,RH3,REM,EQD
72502014734,2022-01-01T00:00:00,4,40.68275,-74.16927,1.9,"NEWARK LIBERTY INTERNATIONAL AIRPORT, NJ US",FM-12,99999,V020,"210,1,N,0021,1","99999,9,9,N","011000,1,9,9","+0100,1","+0083,1","10142,1",,,,,,,,,,,,,,,,,,,,,,,,,,,,,,,,,,,,,,,,,,"99,9,+00450,1,99,9",,,,,,,"9,AGL   ,+99999,+99999","08,99,1,99,9,99,9,00450,1,99,9,99,9","120,M,+0122,1","120,N,+0089,1",,,,,,,,,,,"99999,9,10133,1","1,1,010,1,+999,9",,,,,,,,,,,,,,,SYN08072502 32461 82104 10100 20083 30133 40142 51010 92351 333 10122 20089 555 90100=,
72502014734,2022-01-01T00:51:00,7,40.68275,-74.16927,1.9,"NEWARK LIBERTY INTERNATIONAL AIRPORT, NJ US",FM-15,KEWR ,V030,"160,5,N,0015,5","00366,5,M,N","009656,5,N,5","+0106,5","+0083,5","10142,5","01,0000,2,5",,,,,,,,,,,,,,,,,,,,,,,,,,,,,,"1,0,01,0,0,1,5","0,0,00,1,0,1,5",,"10,5","51,5",,,,,,,"08,5,+00366,5,99,9",,,"4,99,1,+00366,5,9",,,,"9,AGL   ,+99999,+99999","99,99,9,99,9,99,9,00366,1,99,9,99,9",,,,,,,,,,,,,"10142,5,10131,5",,,,,,"51,5",,,,,,,,,,MET11712/31/21 19:51:03 METAR KEWR 010051Z 16003KT 6SM -DZ BR OVC012 11/08 A2995 RMK AO2 DZB49 SLP142 P0000 T01060083 (DHA),
72502014734,2022-01-01T01:51:00,7,40.68275,-74.16927,1.9,"NEWARK LIBERTY INTERNATIONAL AIRPORT, NJ US",FM-15,KEWR ,V030,"999,9,C,0000,5","00366,5,M,N","009656,5,N,5","+0100,5","+0083,5","10137,5","01,0000,2,5",,,,,,,,,,,,,,,,,,,,,,,,,,,,,,"1,0,01,0,0,1,5","0,0,00,1,0,1,5",,"10,5","51,5",,,,,,,"08,5,+00366,5,99,9",,,"4,99,1,+00366,5,9",,,,"9,AGL   ,+99999,+99999","99,99,9,99,9,99,9,00366,1,99,9,99,9",,,,,,,,,,,,,"10139,5,10128,5",,,,,,"51,5",,,,,,,,,,MET11112/31/21 20:51:03 METAR KEWR 010151Z 00000KT 6SM -DZ BR OVC012 10/08 A2994 RMK AO2 SLP137 P0000 T01000083 (DHA),
72502014734,2022-01-01T02:51:00,7,40.68275,-74.16927,1.9,"NEWARK LIBERTY INTERNATIONAL AIRPORT, NJ US",FM-15,KEWR ,V030,"999,9,C,0000,5","00366,5,M,N","009656,5,N,5","+0100,5","+0083,5","10136,5","01,0000,2,5","03,0000,2,1",,,,,,,,,,,,,,,,,,,,,,,,,,,,,"0,0,00,1,0,1,5",,,"10,5",,,,,,,,"07,5,+00366,5,99,9","08,5,+00671,5,99,9",,"3,99,1,+00366,5,9","4,99,1,+00671,5,9",,,"9,AGL   ,+99999,+99999","99,99,9,99,9,99,9,00366,1,99,9,99,9",,,,,,,,,,,,,"10135,5,10125,5","8,9,006,9,+999,9",,,,,,,,,,,,,,,MET13212/31/21 21:51:03 METAR KEWR 010251Z 00000KT 6SM BR BKN012 OVC022 10/08 A2993 RMK AO2 DZE49 SLP136 P0000 60000 T01000083 58006 (MVC),Q01  00008PRCP03
72502014734,2022-01-01T03:51:00,7,40.68275,-74.16927,1.9,"NEWARK LIBERTY INTERNATIONAL AIRPORT, NJ US",FM-15,KEWR ,V030,"180,5,N,0015,5","00427,5,M,N","011265,5,N,5","+0100,5","+0083,5","10133,5","01,0000,9,5",,,,,,,,,,,,,,,,,,,,,,,,,,,,,,,,,,,,,,,,,"02,5,+00305,5,99,9","07,5,+00427,5,99,9","08,5,+00610,5,99,9","1,99,1,+00305,5,9","3,99,1,+00427,5,9","4,99,1,+00610,5,9",,"9,AGL   ,+99999,+99999","99,99,9,99,9,99,9,00305,1,99,9,99,9",,,,,,,,,,,,,"10135,5,10125,5",,,,,,,,,,,,,,,,MET11212/31/21 22:51:03 METAR KEWR 010351Z 18003KT 7SM FEW010 BKN014 OVC020 10/08 A2993 RMK AO2 SLP133 T01000083 (MVC),
72502014734,2022-01-01T04:14:00,7,40.68275,-74.16927,1.9,"NEWARK LIBERTY INTERNATIONAL AIRPORT, NJ US",FM-16,KEWR ,V030,"160,5,N,0021,5","00427,5,M,N","011265,5,N,5","+0100,5","+0083,5","99999,9",,,,,,,,,,,,,,,,,,,,,,,,,,,,,,,,,,,,,,,,,,"04,5,+00274,5,99,9","07,5,+00427,5,99,9","08,5,+00732,5,99,9","2,99,1,+00274,5,9","3,99,1,+00427,5,9","4,99,1,+00732,5,9",,"9,AGL   ,+99999,+99999","99,99,9,99,9,99,9,00274,1,99,9,99,9",,,,,,,,,,,,,"10132,5,10121,5",,,,,,,,,,,,,,,,MET10512/31/21 23:14:03 SPECI KEWR 010414Z 16004KT 7SM SCT009 BKN014 OVC024 10/08 A2992 RMK AO2 T01000083 (MVC),
72502014734,2022-01-01T04:51:00,7,40.68275,-74.16927,1.9,"NEWARK LIBERTY INTERNATIONAL AIRPORT, NJ US",FM-15,KEWR ,V030,"160,5,N,0015,5","00366,5,M,N","012875,5,N,5","+0094,5","+0089,5","10127,5","01,0000,9,5",,,,,,,,,,,,,,,,,,,,,,,,,,,,,,,,,,,,,,,,,"04,5,+00183,5,99,9","07,5,+00366,5,99,9","08,5,+00853,5,99,9","2,99,1,+00183,5,9","3,99,1,+00366,5,9","4,99,1,+00853,5,9",,"9,AGL   ,+99999,+99999","99,99,9,99,9,99,9,00183,1,99,9,99,9","240,M,+0122,1","240,N,+0083,1",,,,,,,,,,,"10129,5,10118,5",,,,,,,,,,,,,,,,MET12212/31/21 23:51:03 METAR KEWR 010451Z 16003KT 8SM SCT006 BKN012 OVC028 09/09 A2991 RMK AO2 SLP127 T00940089 401220083 (MVC),
72502014734,2022-01-01T04:59:00,6,40.68275,-74.16927,1.9,"NEWARK LIBERTY INTERNATIONAL AIRPORT, NJ US",SOD  ,KEWR ,V030,"999,9,9,9999,9","99999,9,9,9","999999,9,9,9","+9999,9","+9999,9","99999,9","24,0003,9,5",,,,,,,,,,,,,,,,,,"0000,9,5,999999,9,9",,,,"024,0000,9,5","AU,16,RA  ,5","AU,14,DZ  ,5","AU,13,BR  ,5",,,,,,,,,,,,"01,5,24,5",,,,,,,,,,,,,"240,M,+0122,5","240,N,+0083,5",,,,,,,,,"024,W,+0089,D,4","024,D,+0083,D,4",,,"10125,4,10135,4","10125,4,10125,4",,,,,,,"1,24,00671,240,9999,5","2,24,00581,230,9999,5","3,24,00224,999,9999,5","024,X,097,D,4","024,N,080,D,4","024,M,089,D,4",SOD78324 HR PRECIPITATION (IN): 0.01 SNOW DEPTH (IN):0     24 HR SNOWFALL (IN):0.0  WEATHER(CODE):1  24 HR MAX TEMP (F): 5424 HR MIN TEMP (F): 47AVERAGE STATION PRESSURE:29.900 MINIMUM SEA LEVEL PRESSURE:29.90 TIME OF OCCURRENCE:2356 PEAK WIND SPEED (MPH): 15 PEAK WIND DIR (DEG):240 PEAK WIND TIME (LST):      FASTEST 2MIN SPEED (MPH): 13FASTEST 2MIN DIR (DEG):230 FASTEST 2MIN TIME (LST):     AVERAGE WIND SPEED (MPH): 5.0 24 HR AVG TEMP (F): 51DEPART FROM NORMAL: 17  SKY COVER SR-SS (TENTHS): 1HEATING DEGREE DAYS: 14 COOLING DEGREE DAYS:  0 LATEST DAY MAX TEMP (0700-1900 LST):54  LATEST NIGHT MIN TEMP(1900-0800 LST):47 HOURLY INCREMENTAL PRECIPITATION VALUES (IN):    0.01 T    0.00 0.00 0.00 0.00 0.00 0.00 0.00 0.00 0.00 0.00 0.00 0.00 0.00 0.00 0.00 0.00 T    T    T    0.00 0.00,
72502014734,2022-01-01T04:59:00,6,40.68275,-74.16927,1.9,"NEWARK LIBERTY INTERNATIONAL AIRPORT, NJ US",SOM  ,KEWR ,V030,"999,9,9,9999,9","99999,9,9,9","999999,9,9,9","+9999,9","+9999,9","99999,9",,,,"00325,9,U","00081,9,2829,9999,9999,U","14,U,06,U,00,U,00,U",,,,,,,,,,,,,,"0000,2,249999,I",,"0003,9,2424,9999,9999,I","024,0003,9,I",,,,,,,,,,,,,,,,,,,,,,,,,,,,,,"744,N,+0317,5","744,M,+1067,5","744,A,+0694,A","N,9,-0050,209999,5","M,9,+0205,119999,5","744,H,0629,6","744,C,0000,5","00,U,00,U,06,U,00,U",,,,,,,"10159,U,10173,U","10383,150751,U,09980,251451,U",,,,,,,,,,,SOM796PCP MTOT:0.14 PCP GT 24HRS:0.12 DATE(S):29-30 DAYS W/PCP >=.01:2  DAYS W/PCP >=.10:0  DAYS W/ PCP >=.50:0 DAYS W/PCP >=1.00:0 MSDP AMTS W/DATE-TIME TAGS:MIN:5 0.01  31/0127 MIN:10 0.01  31/0127 MIN:15 0.01  31/0127 MIN:20 0.02  30/0400 MIN:30 0.02  30/0420 MIN:45 0.03  30/0420 MIN:60 0.04  30/0420 MIN:80 0.05  30/0420 MIN:100 0.06  30/0420 MIN:120 0.07  30/0420 MIN:150 0.09  30/0420 MIN:180 0.09  30/0420 AVG DLY MIN:37.7  AVG DLY MAX:51.2  AVG MLY TMP:44.5  MIN TMP:23 DATE(S):20 MAX TMP:69  DATE(S):11 DAYS MAX <=32:0 DAYS MAX >=90:0  DAYS MIN <=32:6  DAYS MIN  <=0:0  AVG STP:30.000 LWST SLP:29.46 DATE/TIME:251447 HGST SLP:30.67 DATE/TIME:150801 HDD MTH TOT:629 DEP NORM:-2553 SEASON(JUL 1-JUN 30):1238 DEP NORM:-25536 CDD MTH TOT:0 DEP NORM:-2553 SEASON(JAN 1-DEC 31):1663 DEP NORM:-25536,R01  0.147ABP071R02  0.127ADP081R03     27AE1100R04     07AE2103R05  0.047A07077R06  0.077A10078R07  0.097A12079R08  44.57KBM012R09   6297KDH044
72502014734,2022-01-01T05:14:00,7,40.68275,-74.16927,1.9,"NEWARK LIBERTY INTERNATIONAL AIRPORT, NJ US",FM-16,KEWR ,V020,"180,5,N,0031,5","00183,5,M,N","011265,5,N,5","+0100,5","+0089,5","99999,9",,,,,,,,,,,,,,,,,,,,,,,,,,,,,,,,,,,,,,,,,,"07,5,+00183,5,99,9","08,5,+00457,5,99,9",,"3,99,1,+00183,5,9","4,99,1,+00457,5,9",,,"9,AGL   ,+99999,+99999","99,99,9,99,9,99,9,00183,1,99,9,99,9",,,,,,,,,,,,,"10132,5,10121,5",,,,,,,,,,,,,,,,MET09801/01/22 00:14:02 SPECI KEWR 010514Z 18006KT 7SM BKN006 OVC015 10/09 A2992 RMK AO2 T01000089 (MVC),